{
  "type": "FeatureCollection",
  "features": [
    {
      "type": "Feature",
      "properties": {
        "norad_id": 54741,
        "name": "GALAXY 35 (G-35)",
        "group": "intelsat",
        "lat": -0.02321782902230376,
        "lon": -47.35777673175902,
        "alt_km": 35778.7679448688,
        "timestamp": "2025-12-10T21:43:21.754649+00:00",
        "meta_object_name": "GALAXY 35 (G-35)",
        "meta_object_id": "2022-170A",
        "meta_epoch": "2025-12-10T04:23:38.620896",
        "meta_mean_motion": 1.00271022,
        "meta_eccentricity": 0.00026129,
        "meta_inclination": 0.031,
        "meta_ra_of_asc_node": 99.3994,
        "meta_arg_of_pericenter": 166.4389,
        "meta_mean_anomaly": 146.146,
        "meta_ephemeris_type": 0,
        "meta_classification_type": "U",
        "meta_norad_cat_id": 54741,
        "meta_element_set_no": 999,
        "meta_rev_at_epoch": 1099,
        "meta_bstar": 0,
        "meta_mean_motion_dot": -1.59e-06,
        "meta_mean_motion_ddot": 0,
        "tle_line1": "1 54741U 22170A   25344.18308589 -.00000159  00000+0  00000+0 0  9997",
        "tle_line2": "2 54741   0.0310  99.3994 0002612 166.4389 146.1460  1.00271022 10994"
      },
      "geometry": {
        "type": "Point",
        "coordinates": [
          -47.35777673175902,
          -0.02321782902230376
        ]
      }
    },
    {
      "type": "Feature",
      "properties": {
        "norad_id": 54742,
        "name": "GALAXY 36 (G-36)",
        "group": "intelsat",
        "lat": -0.019068090292574166,
        "lon": -43.294988931946556,
        "alt_km": 35784.3817343809,
        "timestamp": "2025-12-10T21:43:21.754660+00:00",
        "meta_object_name": "GALAXY 36 (G-36)",
        "meta_object_id": "2022-170B",
        "meta_epoch": "2025-12-10T05:31:38.713152",
        "meta_mean_motion": 1.00270681,
        "meta_eccentricity": 5.405e-05,
        "meta_inclination": 0.0118,
        "meta_ra_of_asc_node": 35.1013,
        "meta_arg_of_pericenter": 255.8985,
        "meta_mean_anomaly": 142.1142,
        "meta_ephemeris_type": 0,
        "meta_classification_type": "U",
        "meta_norad_cat_id": 54742,
        "meta_element_set_no": 999,
        "meta_rev_at_epoch": 1087,
        "meta_bstar": 0,
        "meta_mean_motion_dot": -1.82e-06,
        "meta_mean_motion_ddot": 0,
        "tle_line1": "1 54742U 22170B   25344.23030918 -.00000182  00000+0  00000+0 0  9998",
        "tle_line2": "2 54742   0.0118  35.1013 0000540 255.8985 142.1142  1.00270681 10874"
      },
      "geometry": {
        "type": "Point",
        "coordinates": [
          -43.294988931946556,
          -0.019068090292574166
        ]
      }
    },
    {
      "type": "Feature",
      "properties": {
        "norad_id": 57493,
        "name": "GALAXY 37 (G-37)",
        "group": "intelsat",
        "lat": -0.02630015463766714,
        "lon": -81.277409347476,
        "alt_km": 35776.55474515075,
        "timestamp": "2025-12-10T21:43:21.754672+00:00",
        "meta_object_name": "GALAXY 37 (G-37)",
        "meta_object_id": "2023-112A",
        "meta_epoch": "2025-12-10T11:00:38.718144",
        "meta_mean_motion": 1.00272064,
        "meta_eccentricity": 0.00022886,
        "meta_inclination": 0.0097,
        "meta_ra_of_asc_node": 0.5935,
        "meta_arg_of_pericenter": 264.7649,
        "meta_mean_anomaly": 212.2417,
        "meta_ephemeris_type": 0,
        "meta_classification_type": "U",
        "meta_norad_cat_id": 57493,
        "meta_element_set_no": 999,
        "meta_rev_at_epoch": 865,
        "meta_bstar": 0,
        "meta_mean_motion_dot": 5.2e-07,
        "meta_mean_motion_ddot": 0,
        "tle_line1": "1 57493U 23112A   25344.45878146  .00000052  00000+0  00000+0 0  9993",
        "tle_line2": "2 57493   0.0097   0.5935 0002288 264.7649 212.2417  1.00272064  8656"
      },
      "geometry": {
        "type": "Point",
        "coordinates": [
          -81.277409347476,
          -0.02630015463766714
        ]
      }
    }
  ]
}